CCSDS_OMM_VERS = 2.0
CREATION_DATE  = 
ORIGINATOR     = 

OBJECT_NAME    = SL-16 R/B
OBJECT_ID      = 1993-016B
CENTER_NAME    = EARTH
REF_FRAME      = TEME
TIME_SYSTEM    = UTC
MEAN_ELEMENT_THEORY = SGP/SGP4

EPOCH          = 2026-01-26T19:08:32.862048
MEAN_MOTION    = 14.15299238
ECCENTRICITY   = .0009414
INCLINATION    = 71.0087
RA_OF_ASC_NODE = 303.1702
ARG_OF_PERICENTER = 15.1989
MEAN_ANOMALY   = 344.9415

EPHEMERIS_TYPE = 0
CLASSIFICATION_TYPE = U
NORAD_CAT_ID   = 22566
ELEMENT_SET_NO = 999
REV_AT_EPOCH   = 69624
BSTAR          = .22156E-3
MEAN_MOTION_DOT = .384E-5
MEAN_MOTION_DDOT = 0

CCSDS_OMM_VERS = 2.0
CREATION_DATE  = 
ORIGINATOR     = 

OBJECT_NAME    = COSMOS 2242
OBJECT_ID      = 1993-024A
CENTER_NAME    = EARTH
REF_FRAME      = TEME
TIME_SYSTEM    = UTC
MEAN_ELEMENT_THEORY = SGP/SGP4

EPOCH          = 2026-01-26T18:39:54.566496
MEAN_MOTION    = 14.96353182
ECCENTRICITY   = .0018094
INCLINATION    = 82.5205
RA_OF_ASC_NODE = 306.7966
ARG_OF_PERICENTER = 85.9809
MEAN_ANOMALY   = 274.3481

EPHEMERIS_TYPE = 0
CLASSIFICATION_TYPE = U
NORAD_CAT_ID   = 22626
ELEMENT_SET_NO = 999
REV_AT_EPOCH   = 77412
BSTAR          = .34226E-3
MEAN_MOTION_DOT = .391E-4
MEAN_MOTION_DDOT = 0

CCSDS_OMM_VERS = 2.0
CREATION_DATE  = 
ORIGINATOR     = 

OBJECT_NAME    = SL-16 R/B
OBJECT_ID      = 1993-059B
CENTER_NAME    = EARTH
REF_FRAME      = TEME
TIME_SYSTEM    = UTC
MEAN_ELEMENT_THEORY = SGP/SGP4

EPOCH          = 2026-01-26T14:55:52.764672
MEAN_MOTION    = 14.17223527
ECCENTRICITY   = .0019583
INCLINATION    = 70.9904
RA_OF_ASC_NODE = 99.8431
ARG_OF_PERICENTER = 273.7945
MEAN_ANOMALY   = 86.0939

EPHEMERIS_TYPE = 0
CLASSIFICATION_TYPE = U
NORAD_CAT_ID   = 22803
ELEMENT_SET_NO = 999
REV_AT_EPOCH   = 67357
BSTAR          = -.51545E-4
MEAN_MOTION_DOT = -.152E-5
MEAN_MOTION_DDOT = 0

CCSDS_OMM_VERS = 2.0
CREATION_DATE  = 
ORIGINATOR     = 

OBJECT_NAME    = ARIANE 40 R/B
OBJECT_ID      = 1993-061H
CENTER_NAME    = EARTH
REF_FRAME      = TEME
TIME_SYSTEM    = UTC
MEAN_ELEMENT_THEORY = SGP/SGP4

EPOCH          = 2026-01-26T15:50:50.191296
MEAN_MOTION    = 14.32836892
ECCENTRICITY   = .0011507
INCLINATION    = 98.5005
RA_OF_ASC_NODE = 96.3586
ARG_OF_PERICENTER = 53.0438
MEAN_ANOMALY   = 307.1799

EPHEMERIS_TYPE = 0
CLASSIFICATION_TYPE = U
NORAD_CAT_ID   = 22830
ELEMENT_SET_NO = 999
REV_AT_EPOCH   = 68808
BSTAR          = .17001E-3
MEAN_MOTION_DOT = .421E-5
MEAN_MOTION_DDOT = 0

CCSDS_OMM_VERS = 2.0
CREATION_DATE  = 
ORIGINATOR     = 

OBJECT_NAME    = COSMOS 2278
OBJECT_ID      = 1994-023A
CENTER_NAME    = EARTH
REF_FRAME      = TEME
TIME_SYSTEM    = UTC
MEAN_ELEMENT_THEORY = SGP/SGP4

EPOCH          = 2026-01-26T15:47:56.700096
MEAN_MOTION    = 14.14367025
ECCENTRICITY   = .0006286
INCLINATION    = 71.0527
RA_OF_ASC_NODE = 263.0357
ARG_OF_PERICENTER = 93.3673
MEAN_ANOMALY   = 266.8169

EPHEMERIS_TYPE = 0
CLASSIFICATION_TYPE = U
NORAD_CAT_ID   = 23087
ELEMENT_SET_NO = 999
REV_AT_EPOCH   = 63886
BSTAR          = -.26156E-4
MEAN_MOTION_DOT = -.97E-6
MEAN_MOTION_DDOT = 0

CCSDS_OMM_VERS = 2.0
CREATION_DATE  = 
ORIGINATOR     = 

OBJECT_NAME    = SL-16 R/B
OBJECT_ID      = 1994-023B
CENTER_NAME    = EARTH
REF_FRAME      = TEME
TIME_SYSTEM    = UTC
MEAN_ELEMENT_THEORY = SGP/SGP4

EPOCH          = 2026-01-26T19:04:07.110336
MEAN_MOTION    = 14.15006637
ECCENTRICITY   = .0004202
INCLINATION    = 71.0002
RA_OF_ASC_NODE = 158.8705
ARG_OF_PERICENTER = 323.7598
MEAN_ANOMALY   = 36.3240

EPHEMERIS_TYPE = 0
CLASSIFICATION_TYPE = U
NORAD_CAT_ID   = 23088
ELEMENT_SET_NO = 999
REV_AT_EPOCH   = 64016
BSTAR          = -.44969E-4
MEAN_MOTION_DOT = -.135E-5
MEAN_MOTION_DDOT = 0

CCSDS_OMM_VERS = 2.0
CREATION_DATE  = 
ORIGINATOR     = 

OBJECT_NAME    = SL-16 R/B
OBJECT_ID      = 1994-074B
CENTER_NAME    = EARTH
REF_FRAME      = TEME
TIME_SYSTEM    = UTC
MEAN_ELEMENT_THEORY = SGP/SGP4

EPOCH          = 2026-01-26T19:13:19.456896
MEAN_MOTION    = 14.79353939
ECCENTRICITY   = .0006719
INCLINATION    = 97.7161
RA_OF_ASC_NODE = 59.3057
ARG_OF_PERICENTER = 10.8177
MEAN_ANOMALY   = 104.5249

EPHEMERIS_TYPE = 0
CLASSIFICATION_TYPE = U
NORAD_CAT_ID   = 23343
ELEMENT_SET_NO = 999
REV_AT_EPOCH   = 68105
BSTAR          = .11837E-3
MEAN_MOTION_DOT = .833E-5
MEAN_MOTION_DDOT = 0

CCSDS_OMM_VERS = 2.0
CREATION_DATE  = 
ORIGINATOR     = 

OBJECT_NAME    = SL-16 R/B
OBJECT_ID      = 1994-077B
CENTER_NAME    = EARTH
REF_FRAME      = TEME
TIME_SYSTEM    = UTC
MEAN_ELEMENT_THEORY = SGP/SGP4

EPOCH          = 2026-01-26T12:14:10.462848
MEAN_MOTION    = 14.15558752
ECCENTRICITY   = .00048066
INCLINATION    = 70.9827
RA_OF_ASC_NODE = 81.2301
ARG_OF_PERICENTER = 250.0885
MEAN_ANOMALY   = 109.9720

EPHEMERIS_TYPE = 0
CLASSIFICATION_TYPE = U
NORAD_CAT_ID   = 23405
ELEMENT_SET_NO = 999
REV_AT_EPOCH   = 61026
BSTAR          = -.48247335E-4
MEAN_MOTION_DOT = -.142E-5
MEAN_MOTION_DDOT = 0

CCSDS_OMM_VERS = 2.0
CREATION_DATE  = 
ORIGINATOR     = 

OBJECT_NAME    = ARIANE 40+ R/B
OBJECT_ID      = 1995-021B
CENTER_NAME    = EARTH
REF_FRAME      = TEME
TIME_SYSTEM    = UTC
MEAN_ELEMENT_THEORY = SGP/SGP4

EPOCH          = 2026-01-26T20:19:58.639008
MEAN_MOTION    = 14.39738950
ECCENTRICITY   = .0005622
INCLINATION    = 98.4581
RA_OF_ASC_NODE = 98.8786
ARG_OF_PERICENTER = 265.8928
MEAN_ANOMALY   = 187.3759

EPHEMERIS_TYPE = 0
CLASSIFICATION_TYPE = U
NORAD_CAT_ID   = 23561
ELEMENT_SET_NO = 999
REV_AT_EPOCH   = 61322
BSTAR          = .18067E-3
MEAN_MOTION_DOT = .522E-5
MEAN_MOTION_DDOT = 0

CCSDS_OMM_VERS = 2.0
CREATION_DATE  = 
ORIGINATOR     = 

OBJECT_NAME    = SL-16 R/B
OBJECT_ID      = 1995-058B
CENTER_NAME    = EARTH
REF_FRAME      = TEME
TIME_SYSTEM    = UTC
MEAN_ELEMENT_THEORY = SGP/SGP4

EPOCH          = 2026-01-26T08:57:42.666336
MEAN_MOTION    = 14.15488257
ECCENTRICITY   = .00130455
INCLINATION    = 71.0201
RA_OF_ASC_NODE = 269.0985
ARG_OF_PERICENTER = 194.2866
MEAN_ANOMALY   = 165.7890

EPHEMERIS_TYPE = 0
CLASSIFICATION_TYPE = U
NORAD_CAT_ID   = 23705
ELEMENT_SET_NO = 999
REV_AT_EPOCH   = 56186
BSTAR          = -.6361698E-4
MEAN_MOTION_DOT = -.172E-5
MEAN_MOTION_DDOT = 0

CCSDS_OMM_VERS = 2.0
CREATION_DATE  = 
ORIGINATOR     = 

OBJECT_NAME    = SL-16 R/B
OBJECT_ID      = 1996-051B
CENTER_NAME    = EARTH
REF_FRAME      = TEME
TIME_SYSTEM    = UTC
MEAN_ELEMENT_THEORY = SGP/SGP4

EPOCH          = 2026-01-26T02:33:21.806496
MEAN_MOTION    = 14.12403725
ECCENTRICITY   = .00184292
INCLINATION    = 70.7576
RA_OF_ASC_NODE = 265.3745
ARG_OF_PERICENTER = 206.3333
MEAN_ANOMALY   = 153.6852

EPHEMERIS_TYPE = 0
CLASSIFICATION_TYPE = U
NORAD_CAT_ID   = 24298
ELEMENT_SET_NO = 999
REV_AT_EPOCH   = 51563
BSTAR          = .68556366E-4
MEAN_MOTION_DOT = .77E-6
MEAN_MOTION_DDOT = 0

CCSDS_OMM_VERS = 2.0
CREATION_DATE  = 
ORIGINATOR     = 

OBJECT_NAME    = ORBVIEW 2 (SEASTAR)
OBJECT_ID      = 1997-037A
CENTER_NAME    = EARTH
REF_FRAME      = TEME
TIME_SYSTEM    = UTC
MEAN_ELEMENT_THEORY = SGP/SGP4

EPOCH          = 2026-01-26T10:57:42.340320
MEAN_MOTION    = 14.35459288
ECCENTRICITY   = .00024022
INCLINATION    = 98.8496
RA_OF_ASC_NODE = 189.6670
ARG_OF_PERICENTER = 161.1194
MEAN_ANOMALY   = 199.0080

EPHEMERIS_TYPE = 0
CLASSIFICATION_TYPE = U
NORAD_CAT_ID   = 24883
ELEMENT_SET_NO = 999
REV_AT_EPOCH   = 50241
BSTAR          = .22087725E-3
MEAN_MOTION_DOT = .588E-5
MEAN_MOTION_DDOT = 0

