SL-16 R/B               
1 22566U 93016B   26026.79760257  .00000384  00000+0  22156-3 0  9992
2 22566  71.0087 303.1702 0009414  15.1989 344.9415 14.15299238696244
COSMOS 2242             
1 22626U 93024A   26026.77771489  .00003910  00000+0  34226-3 0  9994
2 22626  82.5205 306.7966 0018094  85.9809 274.3481 14.96353182774122
SL-16 R/B               
1 22803U 93059B   26026.62213848 -.00000152  00000+0 -51545-4 0  9994
2 22803  70.9904  99.8431 0019583 273.7945  86.0939 14.17223527673570
ARIANE 40 R/B           
1 22830U 93061H   26026.66030314  .00000421  00000+0  17001-3 0  9991
2 22830  98.5005  96.3586 0011507  53.0438 307.1799 14.32836892688080
COSMOS 2278             
1 23087U 94023A   26026.65829514 -.00000097  00000+0 -26156-4 0  9995
2 23087  71.0527 263.0357 0006286  93.3673 266.8169 14.14367025638865
SL-16 R/B               
1 23088U 94023B   26026.79452674 -.00000135  00000+0 -44969-4 0  9995
2 23088  71.0002 158.8705 0004202 323.7598  36.3240 14.15006637640160
SL-16 R/B               
1 23343U 94074B   26026.80091964  .00000833  00000+0  11837-3 0  9998
2 23343  97.7161  59.3057 0006719  10.8177 104.5249 14.79353939681052
SL-16 R/B               
1 23405U 94077B   26026.50984332 -.00000142  00000+0 -48247-4 0  9998
2 23405  70.9827  81.2301 0004806 250.0885 109.9720 14.15558752610266
ARIANE 40+ R/B          
1 23561U 95021B   26026.84720647  .00000522  00000+0  18067-3 0  9991
2 23561  98.4581  98.8786 0005622 265.8928 187.3759 14.39738950613228
SL-16 R/B               
1 23705U 95058B   26026.37341049 -.00000172  00000+0 -63617-4 0  9999
2 23705  71.0201 269.0985 0013045 194.2866 165.7890 14.15488257561865
SL-16 R/B               
1 24298U 96051B   26026.10650239  .00000077  00000+0  68556-4 0  9995
2 24298  70.7576 265.3745 0018429 206.3333 153.6852 14.12403725515634
ORBVIEW 2 (SEASTAR)     
1 24883U 97037A   26026.45674005  .00000588  00000+0  22088-3 0  9991
2 24883  98.8496 189.6670 0002402 161.1194 199.0080 14.35459288502417
